[{"OBJECT_NAME":"SEEDS II (CO-66)","OBJECT_ID":"2008-021J","EPOCH":"2026-03-09T22:06:22.421376","MEAN_MOTION":15.29097236,"ECCENTRICITY":0.00014475,"INCLINATION":97.7519,"RA_OF_ASC_NODE":62.3611,"ARG_OF_PERICENTER":359.2618,"MEAN_ANOMALY":0.8619,"EPHEMERIS_TYPE":0,"CLASSIFICATION_TYPE":"U","NORAD_CAT_ID":32791,"ELEMENT_SET_NO":999,"REV_AT_EPOCH":97210,"BSTAR":0.00084213052,"MEAN_MOTION_DOT":0.00023758,"MEAN_MOTION_DDOT":0},{"OBJECT_NAME":"STARLINK-33815","OBJECT_ID":"2025-071E","EPOCH":"2026-03-09T11:20:10.746240","MEAN_MOTION":15.30192762,"ECCENTRICITY":0.00011621,"INCLINATION":53.1584,"RA_OF_ASC_NODE":141.1464,"ARG_OF_PERICENTER":71.7777,"MEAN_ANOMALY":288.335,"EPHEMERIS_TYPE":0,"CLASSIFICATION_TYPE":"U","NORAD_CAT_ID":63497,"ELEMENT_SET_NO":999,"REV_AT_EPOCH":5273,"BSTAR":0.00063531384,"MEAN_MOTION_DOT":0.000185,"MEAN_MOTION_DDOT":0}]
